start=new Date('2022-12-20T00:00:00.000Z').valueOf();
sats=[{"EPHEMERIS_TYPE":"0","OBJECT_ID":"2021-115AA","SEMIMAJOR_AXIS":"6917.867","COUNTRY_CODE":"US","MEAN_ANOMALY":"332.0914","TLE_LINE2":"2 49748  53.2171  27.7947 0002801  28.0229 332.0914 15.08844414 59132","MEAN_MOTION_DOT":"0.00002054","FILE":"3712012","GP_ID":"220976807","PERIAPSIS":"537.794","MEAN_MOTION":"15.08844414","CLASSIFICATION_TYPE":"U","DECAY_DATE":null,"ECCENTRICITY":"0.00028010","REV_AT_EPOCH":"5913","CENTER_NAME":"EARTH","MEAN_MOTION_DDOT":"0.0000000000000","REF_FRAME":"TEME","RA_OF_ASC_NODE":"27.7947","LAUNCH_DATE":"2021-12-02","TIME_SYSTEM":"UTC","EPOCH":"2022-12-19T19:48:44.979840","ARG_OF_PERICENTER":"28.0229","NORAD_CAT_ID":"49748","APOAPSIS":"541.670","OBJECT_TYPE":"PAYLOAD","BSTAR":"0.00014712000000","RCS_SIZE":"LARGE","ELEMENT_SET_NO":"999","PERIOD":"95.437","OBJECT_NAME":"STARLINK-3248","MEAN_ELEMENT_THEORY":"SGP4","INCLINATION":"53.2171","TLE_LINE1":"1 49748U 21115AA  22353.82552060  .00002054  00000-0  14712-3 0  9994","SITE":"AFETR"},{"RCS_SIZE":"LARGE","ELEMENT_SET_NO":"999","PERIOD":"95.438","OBJECT_NAME":"STARLINK-3250","MEAN_ELEMENT_THEORY":"SGP4","TLE_LINE1":"1 49749U 21115AB  22353.81449626  .00001844  00000-0  13401-3 0  9997","SITE":"AFETR","INCLINATION":"53.2180","OBJECT_TYPE":"PAYLOAD","BSTAR":"0.00013401000000","EPOCH":"2022-12-19T19:32:52.476864","ARG_OF_PERICENTER":"33.3673","APOAPSIS":"541.646","NORAD_CAT_ID":"49749","MEAN_MOTION_DDOT":"0.0000000000000","REF_FRAME":"TEME","RA_OF_ASC_NODE":"27.8287","LAUNCH_DATE":"2021-12-02","CENTER_NAME":"EARTH","REV_AT_EPOCH":"5912","TIME_SYSTEM":"UTC","COUNTRY_CODE":"US","MEAN_ANOMALY":"326.7489","TLE_LINE2":"2 49749  53.2180  27.8287 0002702  33.3673 326.7489 15.08829776 59123","EPHEMERIS_TYPE":"0","OBJECT_ID":"2021-115AB","SEMIMAJOR_AXIS":"6917.912","DECAY_DATE":null,"ECCENTRICITY":"0.00027020","MEAN_MOTION_DOT":"0.00001844","MEAN_MOTION":"15.08829776","GP_ID":"220976803","FILE":"3712012","PERIAPSIS":"537.907","CLASSIFICATION_TYPE":"U"},{"LAUNCH_DATE":"2021-12-02","MEAN_MOTION_DDOT":"0.0000000000000","REF_FRAME":"TEME","RA_OF_ASC_NODE":"29.8323","REV_AT_EPOCH":"5795","CENTER_NAME":"EARTH","TIME_SYSTEM":"UTC","COUNTRY_CODE":"US","MEAN_ANOMALY":"329.2292","TLE_LINE2":"2 49750  53.2171  29.8323 0002535  30.8849 329.2292 15.08841477 57950","OBJECT_ID":"2021-115AC","SEMIMAJOR_AXIS":"6917.876","EPHEMERIS_TYPE":"0","ECCENTRICITY":"0.00025350","DECAY_DATE":null,"CLASSIFICATION_TYPE":"U","MEAN_MOTION_DOT":"0.00002164","MEAN_MOTION":"15.08841477","GP_ID":"220935422","FILE":"3711365","PERIAPSIS":"537.987","PERIOD":"95.437","MEAN_ELEMENT_THEORY":"SGP4","OBJECT_NAME":"STARLINK-3236","RCS_SIZE":"LARGE","ELEMENT_SET_NO":"999","TLE_LINE1":"1 49750U 21115AC  22353.36919782  .00002164  00000-0  15403-3 0  9994","SITE":"AFETR","INCLINATION":"53.2171","BSTAR":"0.00015403000000","OBJECT_TYPE":"PAYLOAD","NORAD_CAT_ID":"49750","APOAPSIS":"541.495","EPOCH":"2022-12-19T08:51:38.691648","ARG_OF_PERICENTER":"30.8849"},{"INCLINATION":"53.2163","TLE_LINE1":"1 49751U 21115AD  22353.82183479  .00003595  00000-0  24378-3 0  9992","SITE":"AFETR","ELEMENT_SET_NO":"999","RCS_SIZE":"LARGE","MEAN_ELEMENT_THEORY":"SGP4","OBJECT_NAME":"STARLINK-3229","PERIOD":"95.437","ARG_OF_PERICENTER":"25.2927","EPOCH":"2022-12-19T19:43:26.525856","APOAPSIS":"541.669","NORAD_CAT_ID":"49751","OBJECT_TYPE":"PAYLOAD","BSTAR":"0.00024378000000","TIME_SYSTEM":"UTC","REV_AT_EPOCH":"5913","CENTER_NAME":"EARTH","REF_FRAME":"TEME","MEAN_MOTION_DDOT":"0.0000000000000","RA_OF_ASC_NODE":"27.8027","LAUNCH_DATE":"2021-12-02","GP_ID":"220977717","FILE":"3712028","MEAN_MOTION":"15.08851102","PERIAPSIS":"537.754","MEAN_MOTION_DOT":"0.00003595","CLASSIFICATION_TYPE":"U","DECAY_DATE":null,"ECCENTRICITY":"0.00028290","EPHEMERIS_TYPE":"0","SEMIMAJOR_AXIS":"6917.846","OBJECT_ID":"2021-115AD","TLE_LINE2":"2 49751  53.2163  27.8027 0002829  25.2927 334.8203 15.08851102 59134","COUNTRY_CODE":"US","MEAN_ANOMALY":"334.8203"},{"MEAN_ELEMENT_THEORY":"SGP4","OBJECT_NAME":"STARLINK-3209","PERIOD":"95.438","ELEMENT_SET_NO":"999","RCS_SIZE":"LARGE","TLE_LINE1":"1 49752U 21115AE  22353.78228546  .00001791  00000-0  13062-3 0  9997","SITE":"AFETR","INCLINATION":"53.2171","BSTAR":"0.00013062000000","OBJECT_TYPE":"PAYLOAD","APOAPSIS":"541.415","NORAD_CAT_ID":"49752","ARG_OF_PERICENTER":"28.3651","EPOCH":"2022-12-19T18:46:29.463744","LAUNCH_DATE":"2021-12-02","MEAN_MOTION_DDOT":"0.0000000000000","REF_FRAME":"TEME","RA_OF_ASC_NODE":"17.9892","REV_AT_EPOCH":"5926","CENTER_NAME":"EARTH","TIME_SYSTEM":"UTC","TLE_LINE2":"2 49752  53.2171  17.9892 0002402  28.3651 331.7472 15.08837391 59261","COUNTRY_CODE":"US","MEAN_ANOMALY":"331.7472","SEMIMAJOR_AXIS":"6917.888","OBJECT_ID":"2021-115AE","EPHEMERIS_TYPE":"0","ECCENTRICITY":"0.00024020","DECAY_DATE":null,"CLASSIFICATION_TYPE":"U","GP_ID":"220977311","FILE":"3712012","PERIAPSIS":"538.092","MEAN_MOTION":"15.08837391","MEAN_MOTION_DOT":"0.00001791"},{"CLASSIFICATION_TYPE":"U","MEAN_MOTION_DOT":"0.00003222","PERIAPSIS":"538.078","GP_ID":"220977309","FILE":"3712012","MEAN_MOTION":"15.08849581","ECCENTRICITY":"0.00023680","DECAY_DATE":null,"OBJECT_ID":"2021-115AF","SEMIMAJOR_AXIS":"6917.851","EPHEMERIS_TYPE":"0","MEAN_ANOMALY":"327.0759","COUNTRY_CODE":"US","TLE_LINE2":"2 49753  53.2177  27.7782 0002368  33.0381 327.0759 15.08849581 59135","TIME_SYSTEM":"UTC","CENTER_NAME":"EARTH","REV_AT_EPOCH":"5913","LAUNCH_DATE":"2021-12-02","REF_FRAME":"TEME","MEAN_MOTION_DDOT":"0.0000000000000","RA_OF_ASC_NODE":"27.7782","NORAD_CAT_ID":"49753","APOAPSIS":"541.354","EPOCH":"2022-12-19T19:54:02.620800","ARG_OF_PERICENTER":"33.0381","OBJECT_TYPE":"PAYLOAD","BSTAR":"0.00022042000000","INCLINATION":"53.2177","TLE_LINE1":"1 49753U 21115AF  22353.82919700  .00003222  00000-0  22042-3 0  9991","SITE":"AFETR","PERIOD":"95.437","MEAN_ELEMENT_THEORY":"SGP4","OBJECT_NAME":"STARLINK-3200","RCS_SIZE":"LARGE","ELEMENT_SET_NO":"999"},{"RCS_SIZE":"LARGE","ELEMENT_SET_NO":"999","PERIOD":"95.439","OBJECT_NAME":"STARLINK-3193","MEAN_ELEMENT_THEORY":"SGP4","INCLINATION":"53.2166","TLE_LINE1":"1 49754U 21115AG  22353.77589978  .00000048  00000-0  21156-4 0  9995","SITE":"AFETR","EPOCH":"2022-12-19T18:37:17.740992","ARG_OF_PERICENTER":"36.8731","APOAPSIS":"542.043","NORAD_CAT_ID":"49754","OBJECT_TYPE":"PAYLOAD","BSTAR":"0.00002115600000","REV_AT_EPOCH":"5926","CENTER_NAME":"EARTH","RA_OF_ASC_NODE":"18.0000","MEAN_MOTION_DDOT":"0.0000000000000","REF_FRAME":"TEME","LAUNCH_DATE":"2021-12-02","TIME_SYSTEM":"UTC","EPHEMERIS_TYPE":"0","OBJECT_ID":"2021-115AG","SEMIMAJOR_AXIS":"6917.930","MEAN_ANOMALY":"323.2484","COUNTRY_CODE":"US","TLE_LINE2":"2 49754  53.2166  18.0000 0003250  36.8731 323.2484 15.08823929 59266","MEAN_MOTION_DOT":"0.00000048","GP_ID":"220977337","MEAN_MOTION":"15.08823929","FILE":"3712008","PERIAPSIS":"537.546","CLASSIFICATION_TYPE":"U","DECAY_DATE":null,"ECCENTRICITY":"0.00032500"},{"INCLINATION":"53.2154","TLE_LINE1":"1 49755U 21115AH  22353.83657313  .00004338  00000-0  29043-3 0  9990","SITE":"AFETR","RCS_SIZE":"LARGE","ELEMENT_SET_NO":"999","PERIOD":"95.437","OBJECT_NAME":"STARLINK-3210","MEAN_ELEMENT_THEORY":"SGP4","EPOCH":"2022-12-19T20:04:39.918432","ARG_OF_PERICENTER":"88.6674","APOAPSIS":"540.424","NORAD_CAT_ID":"49755","BSTAR":"0.00029043000000","OBJECT_TYPE":"PAYLOAD","TIME_SYSTEM":"UTC","CENTER_NAME":"EARTH","REV_AT_EPOCH":"5913","RA_OF_ASC_NODE":"27.7345","MEAN_MOTION_DDOT":"0.0000000000000","REF_FRAME":"TEME","LAUNCH_DATE":"2021-12-02","MEAN_MOTION_DOT":"0.00004338","GP_ID":"220976804","PERIAPSIS":"539.023","FILE":"3712012","MEAN_MOTION":"15.08847160","CLASSIFICATION_TYPE":"U","DECAY_DATE":null,"ECCENTRICITY":"0.00010120","EPHEMERIS_TYPE":"0","OBJECT_ID":"2021-115AH","SEMIMAJOR_AXIS":"6917.859","MEAN_ANOMALY":"271.4434","COUNTRY_CODE":"US","TLE_LINE2":"2 49755  53.2154  27.7345 0001012  88.6674 271.4434 15.08847160 59136"},{"OBJECT_TYPE":"PAYLOAD","BSTAR":"0.00026004000000","EPOCH":"2022-12-19T19:02:22.397856","ARG_OF_PERICENTER":"37.7143","APOAPSIS":"541.457","NORAD_CAT_ID":"49756","RCS_SIZE":"LARGE","ELEMENT_SET_NO":"999","PERIOD":"95.437","MEAN_ELEMENT_THEORY":"SGP4","OBJECT_NAME":"STARLINK-3207","TLE_LINE1":"1 49756U 21115AJ  22353.79331479  .00003853  00000-0  26004-3 0  9993","SITE":"AFETR","INCLINATION":"53.2178","MEAN_ANOMALY":"322.4023","COUNTRY_CODE":"US","TLE_LINE2":"2 49756  53.2178  17.9173 0002493  37.7143 322.4023 15.08844135 59267","EPHEMERIS_TYPE":"0","OBJECT_ID":"2021-115AJ","SEMIMAJOR_AXIS":"6917.868","DECAY_DATE":null,"ECCENTRICITY":"0.00024930","MEAN_MOTION_DOT":"0.00003853","GP_ID":"220977308","PERIAPSIS":"538.008","FILE":"3712012","MEAN_MOTION":"15.08844135","CLASSIFICATION_TYPE":"U","RA_OF_ASC_NODE":"17.9173","MEAN_MOTION_DDOT":"0.0000000000000","REF_FRAME":"TEME","LAUNCH_DATE":"2021-12-02","REV_AT_EPOCH":"5926","CENTER_NAME":"EARTH","TIME_SYSTEM":"UTC"},{"TIME_SYSTEM":"UTC","CENTER_NAME":"EARTH","REV_AT_EPOCH":"5930","MEAN_MOTION_DDOT":"0.0000000000000","REF_FRAME":"TEME","RA_OF_ASC_NODE":"16.7630","LAUNCH_DATE":"2021-12-02","GP_ID":"220977303","FILE":"3712012","MEAN_MOTION":"15.08835308","PERIAPSIS":"538.063","MEAN_MOTION_DOT":"0.00000917","CLASSIFICATION_TYPE":"U","DECAY_DATE":null,"ECCENTRICITY":"0.00024530","EPHEMERIS_TYPE":"0","SEMIMAJOR_AXIS":"6917.895","OBJECT_ID":"2021-115AK","TLE_LINE2":"2 49757  53.2178  16.7630 0002453  29.3071 330.8059 15.08835308 59305","MEAN_ANOMALY":"330.8059","COUNTRY_CODE":"US","INCLINATION":"53.2178","TLE_LINE1":"1 49757U 21115AK  22354.05093236  .00000917  00000-0  75715-4 0  9992","SITE":"AFETR","ELEMENT_SET_NO":"999","RCS_SIZE":"LARGE","MEAN_ELEMENT_THEORY":"SGP4","OBJECT_NAME":"STARLINK-3197","PERIOD":"95.438","ARG_OF_PERICENTER":"29.3071","EPOCH":"2022-12-20T01:13:20.555904","APOAPSIS":"541.457","NORAD_CAT_ID":"49757","BSTAR":"0.00007571500000","OBJECT_TYPE":"PAYLOAD"}];
